ONEWEB-0037             
1 45440U 20020S   23241.81480555 -.00000227  00000+0 -67624-3 0  9999
2 45440  87.8907 224.1155 0001844  87.6361 272.4978 13.11413305168709
ONEWEB-0042             
1 45441U 20020T   23242.02681424  .00003107  00000+0  87280-2 0  9999
2 45441  87.8903 224.0847 0001840  91.6777 268.4561 13.11405856168700
ONEWEB-0098             
1 45442U 20020U   23242.35100539 -.00000205  00000+0 -61523-3 0  9990
2 45442  87.8911 224.0317 0002287  88.5364 271.6026 13.11415275168714
ONEWEB-0055             
1 45443U 20020V   23242.64241418  .00000485  00000+0  13319-2 0  9992
2 45443  87.8912 223.9776 0002153  87.4041 272.7334 13.11416907168734
ONEWEB-0093             
1 45444U 20020W   23242.46333543  .00000189  00000+0  49607-3 0  9995
2 45444  87.8906 224.0007 0002285  93.5300 266.6089 13.11418072168777
ONEWEB-0029             
1 45445U 20020X   23242.48257882  .00000511  00000+0  13988-2 0  9990
2 45445  87.8913 224.0023 0001942  92.0299 268.1052 13.11820299168757
ONEWEB-0068             
1 45446U 20020Y   23241.46405306  .00000114  00000+0  28555-3 0  9990
2 45446  87.8905 224.1964 0002226  95.4347 264.7035 13.11419487168555
ONEWEB-0046             
1 45447U 20020Z   23241.46087781 -.00000035  00000+0 -13555-3 0  9992
2 45447  87.8903 224.2090 0001865  86.7438 273.3904 13.11418862168565
